{"type": "FeatureCollection", "features": [ {"type": "Feature", "properties": {"norad_id": 38953, "name": "BEIDOU-2 G6 (C02)", "group": "beidou", "lat": -0.45004859087049054, "lon": -98.37806402148823, "alt_km": 35795.48346757432, "timestamp": "2025-12-26T05:31:12.772801+00:00", "meta": {"OBJECT_NAME": "BEIDOU-2 G6 (C02)", "OBJECT_ID": "2012-059A", "EPOCH": "2025-12-25T19:23:21.831648", "MEAN_MOTION": 1.00274917, "ECCENTRICITY": 0.00079696, "INCLINATION": 3.9805, "RA_OF_ASC_NODE": 75.3821, "ARG_OF_PERICENTER": 293.9957, "MEAN_ANOMALY": 99.9659, "EPHEMERIS_TYPE": 0, "CLASSIFICATION_TYPE": "U", "NORAD_CAT_ID": 38953, "ELEMENT_SET_NO": 999, "REV_AT_EPOCH": 4817, "BSTAR": 0, "MEAN_MOTION_DOT": -1.55e-06, "MEAN_MOTION_DDOT": 0}, "tle": {"line1": "1 38953U 12059A   25359.80789157 -.00000155  00000+0  00000+0 0  9994", "line2": "2 38953   3.9805  75.3821 0007969 293.9957  99.9659  1.00274917 48174"}}, "geometry": {"type": "Point", "coordinates": [-98.37806402148823, -0.45004859087049054]}}, {"type": "Feature", "properties": {"norad_id": 40549, "name": "BEIDOU-3S IGSO-1S (C31)", "group": "beidou", "lat": -18.532422875972888, "lon": -79.0752366074653, "alt_km": 35903.78104354282, "timestamp": "2025-12-26T05:31:12.772818+00:00", "meta": {"OBJECT_NAME": "BEIDOU-3S IGSO-1S (C31)", "OBJECT_ID": "2015-019A", "EPOCH": "2025-12-25T18:51:43.024032", "MEAN_MOTION": 1.00290186, "ECCENTRICITY": 0.00365496, "INCLINATION": 49.5274, "RA_OF_ASC_NODE": 297.5574, "ARG_OF_PERICENTER": 194.2723, "MEAN_ANOMALY": 340.4455, "EPHEMERIS_TYPE": 0, "CLASSIFICATION_TYPE": "U", "NORAD_CAT_ID": 40549, "ELEMENT_SET_NO": 999, "REV_AT_EPOCH": 3933, "BSTAR": 0, "MEAN_MOTION_DOT": -1.76e-06, "MEAN_MOTION_DDOT": 0}, "tle": {"line1": "1 40549U 15019A   25359.78591463 -.00000176  00000+0  00000+0 0  9998", "line2": "2 40549  49.5274 297.5574 0036549 194.2723 340.4455  1.00290186 39339"}}, "geometry": {"type": "Point", "coordinates": [-79.0752366074653, -18.532422875972888]}}, {"type": "Feature", "properties": {"norad_id": 40748, "name": "BEIDOU-3S M2S (C58)", "group": "beidou", "lat": -38.135066277027285, "lon": 161.28115926445832, "alt_km": 21508.47941168277, "timestamp": "2025-12-26T05:31:12.772829+00:00", "meta": {"OBJECT_NAME": "BEIDOU-3S M2S (C58)", "OBJECT_ID": "2015-037A", "EPOCH": "2025-12-24T19:32:44.901312", "MEAN_MOTION": 1.86229543, "ECCENTRICITY": 0.00118109, "INCLINATION": 55.028, "RA_OF_ASC_NODE": 308.0499, "ARG_OF_PERICENTER": 271.2412, "MEAN_ANOMALY": 88.6304, "EPHEMERIS_TYPE": 0, "CLASSIFICATION_TYPE": "U", "NORAD_CAT_ID": 40748, "ELEMENT_SET_NO": 999, "REV_AT_EPOCH": 7087, "BSTAR": 0, "MEAN_MOTION_DOT": -5.3e-07, "MEAN_MOTION_DDOT": 0}, "tle": {"line1": "1 40748U 15037A   25358.81440858 -.00000053  00000+0  00000+0 0  9997", "line2": "2 40748  55.0280 308.0499 0011810 271.2412  88.6304  1.86229543 70879"}}, "geometry": {"type": "Point", "coordinates": [161.28115926445832, -38.135066277027285]}}, {"type": "Feature", "properties": {"norad_id": 40749, "name": "BEIDOU-3S M1S (C57)", "group": "beidou", "lat": 52.67030795481582, "lon": 14.469242800880327, "alt_km": 21516.726440541872, "timestamp": "2025-12-26T05:31:12.772840+00:00", "meta": {"OBJECT_NAME": "BEIDOU-3S M1S (C57)", "OBJECT_ID": "2015-037B", "EPOCH": "2025-12-25T01:01:53.071104", "MEAN_MOTION": 1.86253893, "ECCENTRICITY": 0.00036899, "INCLINATION": 55.0241, "RA_OF_ASC_NODE": 308.031, "ARG_OF_PERICENTER": 2.2616, "MEAN_ANOMALY": 357.7473, "EPHEMERIS_TYPE": 0, "CLASSIFICATION_TYPE": "U", "NORAD_CAT_ID": 40749, "ELEMENT_SET_NO": 999, "REV_AT_EPOCH": 7088, "BSTAR": 0, "MEAN_MOTION_DOT": -5.3e-07, "MEAN_MOTION_DDOT": 0}, "tle": {"line1": "1 40749U 15037B   25359.04297536 -.00000053  00000+0  00000+0 0  9997", "line2": "2 40749  55.0241 308.0310 0003689   2.2616 357.7473  1.86253893 70885"}}, "geometry": {"type": "Point", "coordinates": [14.469242800880327, 52.67030795481582]}}, {"type": "Feature", "properties": {"norad_id": 40938, "name": "BEIDOU-3S IGSO-2S (C56)", "group": "beidou", "lat": 9.498714224688113, "lon": -90.9287770205042, "alt_km": 36042.686341625915, "timestamp": "2025-12-26T05:31:12.772852+00:00", "meta": {"OBJECT_NAME": "BEIDOU-3S IGSO-2S (C56)", "OBJECT_ID": "2015-053A", "EPOCH": "2025-12-25T16:15:10.880064", "MEAN_MOTION": 1.00267373, "ECCENTRICITY": 0.006068, "INCLINATION": 49.4905, "RA_OF_ASC_NODE": 260.8539, "ARG_OF_PERICENTER": 188.4891, "MEAN_ANOMALY": 344.6417, "EPHEMERIS_TYPE": 0, "CLASSIFICATION_TYPE": "U", "NORAD_CAT_ID": 40938, "ELEMENT_SET_NO": 999, "REV_AT_EPOCH": 3761, "BSTAR": 0, "MEAN_MOTION_DOT": -1.2e-06, "MEAN_MOTION_DDOT": 0}, "tle": {"line1": "1 40938U 15053A   25359.67720926 -.00000120  00000+0  00000+0 0  9993", "line2": "2 40938  49.4905 260.8539 0060680 188.4891 344.6417  1.00267373 37614"}}, "geometry": {"type": "Point", "coordinates": [-90.9287770205042, 9.498714224688113]}}, {"type": "Feature", "properties": {"norad_id": 41434, "name": "BEIDOU-2 IGSO-6 (C13)", "group": "beidou", "lat": -42.792871587048474, "lon": -107.863879754955, "alt_km": 35529.26185863499, "timestamp": "2025-12-26T05:31:12.772863+00:00", "meta": {"OBJECT_NAME": "BEIDOU-2 IGSO-6 (C13)", "OBJECT_ID": "2016-021A", "EPOCH": "2025-12-25T02:21:14.682240", "MEAN_MOTION": 1.00290736, "ECCENTRICITY": 0.00608236, "INCLINATION": 59.9818, "RA_OF_ASC_NODE": 39.7747, "ARG_OF_PERICENTER": 230.5129, "MEAN_ANOMALY": 312.5474, "EPHEMERIS_TYPE": 0, "CLASSIFICATION_TYPE": "U", "NORAD_CAT_ID": 41434, "ELEMENT_SET_NO": 999, "REV_AT_EPOCH": 3573, "BSTAR": 0, "MEAN_MOTION_DOT": -1.35e-06, "MEAN_MOTION_DDOT": 0}, "tle": {"line1": "1 41434U 16021A   25359.09808660 -.00000135  00000+0  00000+0 0  9995", "line2": "2 41434  59.9818  39.7747 0060823 230.5129 312.5474  1.00290736 35738"}}, "geometry": {"type": "Point", "coordinates": [-107.863879754955, -42.792871587048474]}}, {"type": "Feature", "properties": {"norad_id": 41586, "name": "BEIDOU-2 G7 (C03)", "group": "beidou", "lat": -1.1739547997974484, "lon": -71.86126607093954, "alt_km": 35804.191251896984, "timestamp": "2025-12-26T05:31:12.772875+00:00", "meta": {"OBJECT_NAME": "BEIDOU-2 G7 (C03)", "OBJECT_ID": "2016-037A", "EPOCH": "2025-12-25T22:09:08.222976", "MEAN_MOTION": 1.00268204, "ECCENTRICITY": 0.00051777, "INCLINATION": 1.7871, "RA_OF_ASC_NODE": 67.9012, "ARG_OF_PERICENTER": 0.645, "MEAN_ANOMALY": 108.832, "EPHEMERIS_TYPE": 0, "CLASSIFICATION_TYPE": "U", "NORAD_CAT_ID": 41586, "ELEMENT_SET_NO": 999, "REV_AT_EPOCH": 515, "BSTAR": 0, "MEAN_MOTION_DOT": -3.32e-06, "MEAN_MOTION_DDOT": 0}, "tle": {"line1": "1 41586U 16037A   25359.92301184 -.00000332  00000+0  00000+0 0  9990", "line2": "2 41586   1.7871  67.9012 0005177   0.6450 108.8320  1.00268204  5156"}}, "geometry": {"type": "Point", "coordinates": [-71.86126607093954, -1.1739547997974484]}}, {"type": "Feature", "properties": {"norad_id": 43001, "name": "BEIDOU-3 M1 (C19)", "group": "beidou", "lat": -1.9481698667604044, "lon": 67.51735473362044, "alt_km": 21513.093904246274, "timestamp": "2025-12-26T05:31:12.772886+00:00", "meta": {"OBJECT_NAME": "BEIDOU-3 M1 (C19)", "OBJECT_ID": "2017-069A", "EPOCH": "2025-12-25T03:49:47.920224", "MEAN_MOTION": 1.86231313, "ECCENTRICITY": 0.0009789, "INCLINATION": 56.5365, "RA_OF_ASC_NODE": 68.8241, "ARG_OF_PERICENTER": 302.2681, "MEAN_ANOMALY": 57.6912, "EPHEMERIS_TYPE": 0, "CLASSIFICATION_TYPE": "U", "NORAD_CAT_ID": 43001, "ELEMENT_SET_NO": 999, "REV_AT_EPOCH": 5536, "BSTAR": 0, "MEAN_MOTION_DOT": -2.5e-07, "MEAN_MOTION_DDOT": 0}, "tle": {"line1": "1 43001U 17069A   25359.15958241 -.00000025  00000+0  00000+0 0  9996", "line2": "2 43001  56.5365  68.8241 0009789 302.2681  57.6912  1.86231313 55361"}}, "geometry": {"type": "Point", "coordinates": [67.51735473362044, -1.9481698667604044]}}, {"type": "Feature", "properties": {"norad_id": 43002, "name": "BEIDOU-3 M2 (C20)", "group": "beidou", "lat": 31.687104023604768, "lon": 92.90587856132844, "alt_km": 21518.159645073145, "timestamp": "2025-12-26T05:31:12.772897+00:00", "meta": {"OBJECT_NAME": "BEIDOU-3 M2 (C20)", "OBJECT_ID": "2017-069B", "EPOCH": "2025-12-25T15:14:16.903968", "MEAN_MOTION": 1.86231039, "ECCENTRICITY": 0.0006764, "INCLINATION": 56.5366, "RA_OF_ASC_NODE": 68.8439, "ARG_OF_PERICENTER": 327.6836, "MEAN_ANOMALY": 32.3283, "EPHEMERIS_TYPE": 0, "CLASSIFICATION_TYPE": "U", "NORAD_CAT_ID": 43002, "ELEMENT_SET_NO": 999, "REV_AT_EPOCH": 5536, "BSTAR": 0, "MEAN_MOTION_DOT": -2.7e-07, "MEAN_MOTION_DDOT": 0}, "tle": {"line1": "1 43002U 17069B   25359.63491787 -.00000027  00000+0  00000+0 0  9999", "line2": "2 43002  56.5366  68.8439 0006764 327.6836  32.3283  1.86231039 55361"}}, "geometry": {"type": "Point", "coordinates": [92.90587856132844, 31.687104023604768]}}, {"type": "Feature", "properties": {"norad_id": 43107, "name": "BEIDOU-3 M7 (C27)", "group": "beidou", "lat": -25.167939027245044, "lon": 147.91609932161353, "alt_km": 21537.933558809487, "timestamp": "2025-12-26T05:31:12.772909+00:00", "meta": {"OBJECT_NAME": "BEIDOU-3 M7 (C27)", "OBJECT_ID": "2018-003A", "EPOCH": "2025-12-23T05:31:08.538816", "MEAN_MOTION": 1.86232625, "ECCENTRICITY": 0.0002961, "INCLINATION": 54.4874, "RA_OF_ASC_NODE": 308.4506, "ARG_OF_PERICENTER": 66.5422, "MEAN_ANOMALY": 293.4915, "EPHEMERIS_TYPE": 0, "CLASSIFICATION_TYPE": "U", "NORAD_CAT_ID": 43107, "ELEMENT_SET_NO": 999, "REV_AT_EPOCH": 5407, "BSTAR": 0, "MEAN_MOTION_DOT": -5.5e-07, "MEAN_MOTION_DDOT": 0}, "tle": {"line1": "1 43107U 18003A   25357.22995994 -.00000055  00000+0  00000+0 0  9997", "line2": "2 43107  54.4874 308.4506 0002961  66.5422 293.4915  1.86232625 54072"}}, "geometry": {"type": "Point", "coordinates": [147.91609932161353, -25.167939027245044]}}]}